[{"OBJECT_NAME":"STARLINK-2588","OBJECT_ID":"2021-038AX","EPOCH":"2026-03-09T22:36:04.296960","MEAN_MOTION":15.15106652,"ECCENTRICITY":0.00059986,"INCLINATION":53.0735,"RA_OF_ASC_NODE":337.743,"ARG_OF_PERICENTER":113.5514,"MEAN_ANOMALY":246.611,"EPHEMERIS_TYPE":0,"CLASSIFICATION_TYPE":"U","NORAD_CAT_ID":48398,"ELEMENT_SET_NO":999,"REV_AT_EPOCH":26860,"BSTAR":0.0020267128,"MEAN_MOTION_DOT":0.00038318,"MEAN_MOTION_DDOT":0},{"OBJECT_NAME":"RAISE 2","OBJECT_ID":"2021-102C","EPOCH":"2026-03-09T15:24:00.371808","MEAN_MOTION":15.20242049,"ECCENTRICITY":0.0007134,"INCLINATION":97.3388,"RA_OF_ASC_NODE":104.317,"ARG_OF_PERICENTER":273.4447,"MEAN_ANOMALY":86.5972,"EPHEMERIS_TYPE":0,"CLASSIFICATION_TYPE":"U","NORAD_CAT_ID":49397,"ELEMENT_SET_NO":999,"REV_AT_EPOCH":23830,"BSTAR":0.00039057,"MEAN_MOTION_DOT":8.413e-5,"MEAN_MOTION_DDOT":0}]
